start=new Date('2021-08-31T00:00:00.000Z').valueOf();
sats=[{"FILE":"3105635","LAUNCH_DATE":"2021-02-04","MEAN_ELEMENT_THEORY":"SGP4","ELEMENT_SET_NO":"999","ECCENTRICITY":"0.00010660","NORAD_CAT_ID":"47560","ARG_OF_PERICENTER":"58.7544","PERIOD":"95.591","MEAN_MOTION":"15.06412115","OBJECT_NAME":"STARLINK-1959","BSTAR":"0.00017711000000","OBJECT_ID":"2021-009N","SITE":"AFETR","TLE_LINE1":"1 47560U 21009N   21242.43520889  .00002359  00000-0  17711-3 0  9993","CENTER_NAME":"EARTH","EPOCH":"2021-08-30T10:26:42.048096","CLASSIFICATION_TYPE":"U","OBJECT_TYPE":"PAYLOAD","REF_FRAME":"TEME","COUNTRY_CODE":"US","TLE_LINE2":"2 47560  53.0559 218.8806 0001066  58.7544 301.3549 15.06412115 32040","GP_ID":"183731348","REV_AT_EPOCH":"3204","MEAN_ANOMALY":"301.3549","APOAPSIS":"547.915","MEAN_MOTION_DOT":"0.00002359","TIME_SYSTEM":"UTC","EPHEMERIS_TYPE":"0","MEAN_MOTION_DDOT":"0.0000000000000","RCS_SIZE":"LARGE","INCLINATION":"53.0559","SEMIMAJOR_AXIS":"6925.311","PERIAPSIS":"546.438","RA_OF_ASC_NODE":"218.8806","DECAY_DATE":null},{"OBJECT_ID":"2021-009P","CLASSIFICATION_TYPE":"U","OBJECT_TYPE":"PAYLOAD","REF_FRAME":"TEME","TLE_LINE1":"1 47561U 21009P   21242.48864472 -.00004879  00000-0 -30848-3 0  9995","SITE":"AFETR","CENTER_NAME":"EARTH","EPOCH":"2021-08-30T11:43:38.903808","NORAD_CAT_ID":"47561","PERIOD":"95.591","MEAN_MOTION":"15.06415996","ARG_OF_PERICENTER":"183.0035","OBJECT_NAME":"STARLINK-1960","FILE":"3105635","LAUNCH_DATE":"2021-02-04","MEAN_ELEMENT_THEORY":"SGP4","ELEMENT_SET_NO":"999","ECCENTRICITY":"0.00057360","BSTAR":"-0.00030848000000","EPHEMERIS_TYPE":"0","MEAN_MOTION_DDOT":"0.0000000000000","RCS_SIZE":"LARGE","TIME_SYSTEM":"UTC","PERIAPSIS":"543.192","RA_OF_ASC_NODE":"238.6111","DECAY_DATE":null,"INCLINATION":"53.0621","SEMIMAJOR_AXIS":"6925.300","TLE_LINE2":"2 47561  53.0621 238.6111 0005736 183.0035 177.0921 15.06415996 31776","COUNTRY_CODE":"US","MEAN_ANOMALY":"177.0921","MEAN_MOTION_DOT":"-0.00004879","APOAPSIS":"551.137","GP_ID":"183732599","REV_AT_EPOCH":"3177"},{"ELEMENT_SET_NO":"999","LAUNCH_DATE":"2021-02-04","FILE":"3105635","MEAN_ELEMENT_THEORY":"SGP4","ECCENTRICITY":"0.00010960","NORAD_CAT_ID":"47562","OBJECT_NAME":"STARLINK-1961","PERIOD":"95.592","ARG_OF_PERICENTER":"9.8097","MEAN_MOTION":"15.06399834","BSTAR":"0.00012492000000","OBJECT_ID":"2021-009Q","CENTER_NAME":"EARTH","SITE":"AFETR","TLE_LINE1":"1 47562U 21009Q   21242.30435118  .00001580  00000-0  12492-3 0  9997","EPOCH":"2021-08-30T07:18:15.941952","REF_FRAME":"TEME","OBJECT_TYPE":"PAYLOAD","CLASSIFICATION_TYPE":"U","COUNTRY_CODE":"US","TLE_LINE2":"2 47562  53.0547 239.4608 0001096   9.8097 350.2913 15.06399834 31747","GP_ID":"183732346","REV_AT_EPOCH":"3174","MEAN_ANOMALY":"350.2913","MEAN_MOTION_DOT":"0.00001580","APOAPSIS":"547.973","TIME_SYSTEM":"UTC","EPHEMERIS_TYPE":"0","RCS_SIZE":"LARGE","MEAN_MOTION_DDOT":"0.0000000000000","INCLINATION":"53.0547","SEMIMAJOR_AXIS":"6925.349","RA_OF_ASC_NODE":"239.4608","PERIAPSIS":"546.455","DECAY_DATE":null},{"INCLINATION":"53.0551","SEMIMAJOR_AXIS":"6925.314","PERIAPSIS":"546.565","RA_OF_ASC_NODE":"239.6556","DECAY_DATE":null,"TIME_SYSTEM":"UTC","EPHEMERIS_TYPE":"0","MEAN_MOTION_DDOT":"0.0000000000000","RCS_SIZE":"LARGE","GP_ID":"183731598","REV_AT_EPOCH":"3173","MEAN_ANOMALY":"312.9105","APOAPSIS":"547.794","MEAN_MOTION_DOT":"0.00001628","COUNTRY_CODE":"US","TLE_LINE2":"2 47563  53.0551 239.6556 0000887  47.1959 312.9105 15.06411189 31731","TLE_LINE1":"1 47563U 21009R   21242.26011859  .00001628  00000-0  12809-3 0  9990","SITE":"AFETR","CENTER_NAME":"EARTH","EPOCH":"2021-08-30T06:14:34.246176","OBJECT_TYPE":"PAYLOAD","REF_FRAME":"TEME","CLASSIFICATION_TYPE":"U","OBJECT_ID":"2021-009R","BSTAR":"0.00012809000000","MEAN_ELEMENT_THEORY":"SGP4","FILE":"3105635","LAUNCH_DATE":"2021-02-04","ELEMENT_SET_NO":"999","ECCENTRICITY":"0.00008870","NORAD_CAT_ID":"47563","PERIOD":"95.591","ARG_OF_PERICENTER":"47.1959","MEAN_MOTION":"15.06411189","OBJECT_NAME":"STARLINK-1962"},{"COUNTRY_CODE":"US","TLE_LINE2":"2 47564  53.0547 229.3542 0000632  37.0491 323.0541 15.06400497 31888","GP_ID":"183731848","REV_AT_EPOCH":"3188","MEAN_ANOMALY":"323.0541","MEAN_MOTION_DOT":"-0.00000219","APOAPSIS":"547.650","TIME_SYSTEM":"UTC","EPHEMERIS_TYPE":"0","MEAN_MOTION_DDOT":"0.0000000000000","RCS_SIZE":"LARGE","INCLINATION":"53.0547","SEMIMAJOR_AXIS":"6925.347","PERIAPSIS":"546.774","RA_OF_ASC_NODE":"229.3542","DECAY_DATE":null,"FILE":"3105635","LAUNCH_DATE":"2021-02-04","MEAN_ELEMENT_THEORY":"SGP4","ELEMENT_SET_NO":"999","ECCENTRICITY":"0.00006320","NORAD_CAT_ID":"47564","PERIOD":"95.592","ARG_OF_PERICENTER":"37.0491","MEAN_MOTION":"15.06400497","OBJECT_NAME":"STARLINK-1963","BSTAR":"0.00000418980000","OBJECT_ID":"2021-009S","TLE_LINE1":"1 47564U 21009S   21242.32738149 -.00000219  00000-0  41898-5 0  9994","SITE":"AFETR","CENTER_NAME":"EARTH","EPOCH":"2021-08-30T07:51:25.760736","OBJECT_TYPE":"PAYLOAD","CLASSIFICATION_TYPE":"U","REF_FRAME":"TEME"},{"COUNTRY_CODE":"US","TLE_LINE2":"2 47565  53.0543 228.7759 0001233  17.9467 342.1565 15.06400369 31905","REV_AT_EPOCH":"3190","GP_ID":"183732100","APOAPSIS":"548.066","MEAN_MOTION_DOT":"-0.00002439","MEAN_ANOMALY":"342.1565","TIME_SYSTEM":"UTC","RCS_SIZE":"LARGE","MEAN_MOTION_DDOT":"0.0000000000000","EPHEMERIS_TYPE":"0","SEMIMAJOR_AXIS":"6925.347","INCLINATION":"53.0543","DECAY_DATE":null,"RA_OF_ASC_NODE":"228.7759","PERIAPSIS":"546.359","ECCENTRICITY":"0.00012330","ELEMENT_SET_NO":"999","LAUNCH_DATE":"2021-02-04","FILE":"3105635","MEAN_ELEMENT_THEORY":"SGP4","OBJECT_NAME":"STARLINK-1964","PERIOD":"95.592","MEAN_MOTION":"15.06400369","ARG_OF_PERICENTER":"17.9467","NORAD_CAT_ID":"47565","BSTAR":"-0.00014492000000","OBJECT_ID":"2021-009T","EPOCH":"2021-08-30T10:57:14.719104","CENTER_NAME":"EARTH","TLE_LINE1":"1 47565U 21009T   21242.45642036 -.00002439  00000-0 -14492-3 0  9993","SITE":"AFETR","CLASSIFICATION_TYPE":"U","OBJECT_TYPE":"PAYLOAD","REF_FRAME":"TEME"},{"REV_AT_EPOCH":"3204","GP_ID":"183732846","APOAPSIS":"548.084","MEAN_MOTION_DOT":"0.00000649","MEAN_ANOMALY":"317.4960","COUNTRY_CODE":"US","TLE_LINE2":"2 47566  53.0537 218.8013 0001238  42.6125 317.4960 15.06395626 32042","SEMIMAJOR_AXIS":"6925.362","INCLINATION":"53.0537","DECAY_DATE":null,"PERIAPSIS":"546.370","RA_OF_ASC_NODE":"218.8013","TIME_SYSTEM":"UTC","MEAN_MOTION_DDOT":"0.0000000000000","RCS_SIZE":"LARGE","EPHEMERIS_TYPE":"0","BSTAR":"0.00006248900000","ECCENTRICITY":"0.00012380","MEAN_ELEMENT_THEORY":"SGP4","FILE":"3105635","LAUNCH_DATE":"2021-02-04","ELEMENT_SET_NO":"999","PERIOD":"95.592","MEAN_MOTION":"15.06395626","ARG_OF_PERICENTER":"42.6125","OBJECT_NAME":"STARLINK-1965","NORAD_CAT_ID":"47566","EPOCH":"2021-08-30T10:47:55.552128","TLE_LINE1":"1 47566U 21009U   21242.44994852  .00000649  00000-0  62489-4 0  9998","SITE":"AFETR","CENTER_NAME":"EARTH","REF_FRAME":"TEME","OBJECT_TYPE":"PAYLOAD","CLASSIFICATION_TYPE":"U","OBJECT_ID":"2021-009U"},{"RCS_SIZE":"LARGE","MEAN_MOTION_DDOT":"0.0000000000000","EPHEMERIS_TYPE":"0","TIME_SYSTEM":"UTC","DECAY_DATE":null,"RA_OF_ASC_NODE":"258.6436","PERIAPSIS":"546.701","SEMIMAJOR_AXIS":"6925.343","INCLINATION":"53.0536","TLE_LINE2":"2 47567  53.0536 258.6436 0000732  78.9509 281.1562 15.06401726 31480","COUNTRY_CODE":"US","APOAPSIS":"547.715","MEAN_MOTION_DOT":"0.00000193","MEAN_ANOMALY":"281.1562","REV_AT_EPOCH":"3148","GP_ID":"183731099","OBJECT_ID":"2021-009V","OBJECT_TYPE":"PAYLOAD","CLASSIFICATION_TYPE":"U","REF_FRAME":"TEME","EPOCH":"2021-08-30T11:41:00.984480","CENTER_NAME":"EARTH","TLE_LINE1":"1 47567U 21009V   21242.48681695  .00000193  00000-0  31832-4 0  9993","SITE":"AFETR","OBJECT_NAME":"STARLINK-1966","PERIOD":"95.592","ARG_OF_PERICENTER":"78.9509","MEAN_MOTION":"15.06401726","NORAD_CAT_ID":"47567","ECCENTRICITY":"0.00007320","ELEMENT_SET_NO":"999","FILE":"3105635","MEAN_ELEMENT_THEORY":"SGP4","LAUNCH_DATE":"2021-02-04","BSTAR":"0.00003183200000"},{"DECAY_DATE":null,"PERIAPSIS":"546.744","RA_OF_ASC_NODE":"259.4331","SEMIMAJOR_AXIS":"6925.365","INCLINATION":"53.0533","MEAN_MOTION_DDOT":"0.0000000000000","RCS_SIZE":"LARGE","EPHEMERIS_TYPE":"0","TIME_SYSTEM":"UTC","MEAN_MOTION_DOT":"0.00000896","APOAPSIS":"547.716","MEAN_ANOMALY":"303.7858","REV_AT_EPOCH":"3146","GP_ID":"183731349","TLE_LINE2":"2 47568  53.0533 259.4331 0000702  56.3198 303.7858 15.06394692 31462","COUNTRY_CODE":"US","REF_FRAME":"TEME","OBJECT_TYPE":"PAYLOAD","CLASSIFICATION_TYPE":"U","EPOCH":"2021-08-30T07:31:32.460960","SITE":"AFETR","TLE_LINE1":"1 47568U 21009W   21242.31357015  .00000896  00000-0  79050-4 0  9996","CENTER_NAME":"EARTH","OBJECT_ID":"2021-009W","BSTAR":"0.00007905000000","ARG_OF_PERICENTER":"56.3198","PERIOD":"95.592","MEAN_MOTION":"15.06394692","OBJECT_NAME":"STARLINK-1967","NORAD_CAT_ID":"47568","ECCENTRICITY":"0.00007020","FILE":"3105635","LAUNCH_DATE":"2021-02-04","MEAN_ELEMENT_THEORY":"SGP4","ELEMENT_SET_NO":"999"},{"COUNTRY_CODE":"US","TLE_LINE2":"2 47569  53.0721 232.7422 0009399  47.6041 312.5742 15.06407239 32472","REV_AT_EPOCH":"3247","GP_ID":"183736083","MEAN_MOTION_DOT":"0.00000907","APOAPSIS":"553.700","MEAN_ANOMALY":"312.5742","TIME_SYSTEM":"UTC","RCS_SIZE":"LARGE","MEAN_MOTION_DDOT":"0.0000000000000","EPHEMERIS_TYPE":"0","SEMIMAJOR_AXIS":"6925.326","INCLINATION":"53.0721","DECAY_DATE":null,"RA_OF_ASC_NODE":"232.7422","PERIAPSIS":"540.682","ECCENTRICITY":"0.00093990","ELEMENT_SET_NO":"999","FILE":"3105765","MEAN_ELEMENT_THEORY":"SGP4","LAUNCH_DATE":"2021-02-04","OBJECT_NAME":"STARLINK-1968","ARG_OF_PERICENTER":"47.6041","PERIOD":"95.592","MEAN_MOTION":"15.06407239","NORAD_CAT_ID":"47569","BSTAR":"0.00007995600000","OBJECT_ID":"2021-009X","EPOCH":"2021-08-30T16:05:44.162592","CENTER_NAME":"EARTH","SITE":"AFETR","TLE_LINE1":"1 47569U 21009X   21242.67065003  .00000907  00000-0  79956-4 0  9997","REF_FRAME":"TEME","OBJECT_TYPE":"PAYLOAD","CLASSIFICATION_TYPE":"U"}];
